[{"OBJECT_NAME":"STARLINK-34214","OBJECT_ID":"2025-113W","EPOCH":"2026-03-09T12:01:47.501472","MEAN_MOTION":15.30212674,"ECCENTRICITY":0.00014369,"INCLINATION":53.1591,"RA_OF_ASC_NODE":92.19,"ARG_OF_PERICENTER":54.132,"MEAN_ANOMALY":305.9814,"EPHEMERIS_TYPE":0,"CLASSIFICATION_TYPE":"U","NORAD_CAT_ID":64190,"ELEMENT_SET_NO":999,"REV_AT_EPOCH":4503,"BSTAR":0.00094523194,"MEAN_MOTION_DOT":0.00027751,"MEAN_MOTION_DDOT":0},{"OBJECT_NAME":"CZ-6A DEB","OBJECT_ID":"2024-140BH","EPOCH":"2026-03-09T12:42:23.031936","MEAN_MOTION":15.05550408,"ECCENTRICITY":0.0121353,"INCLINATION":89.148,"RA_OF_ASC_NODE":290.4372,"ARG_OF_PERICENTER":169.3672,"MEAN_ANOMALY":191.0177,"EPHEMERIS_TYPE":0,"CLASSIFICATION_TYPE":"U","NORAD_CAT_ID":60656,"ELEMENT_SET_NO":999,"REV_AT_EPOCH":8464,"BSTAR":0.002338,"MEAN_MOTION_DOT":0.00039913,"MEAN_MOTION_DDOT":0}]
